{"type":"FeatureCollection", "features": [
{"type":"Feature","geometry":{"type":"Polygon","coordinates":[[[-110,48.99],[-110,51.4],[-110,52.78],[-110,54.5],[-110,57.25],[-110,60],[-113.75,60],[-116.25,60],[-120,60],[-120,57.31],[-120,55.77],[-120,53.84],[-119.89,53.52],[-119.26,53.21],[-118.8,53.15],[-117.59,52.14],[-117.32,52.16],[-116.94,51.74],[-116.67,51.79],[-116,51.13],[-115.62,50.96],[-115.21,50.55],[-114.79,50.36],[-114.65,49.99],[-114.72,49.57],[-114.06,48.99],[-112.45,48.99],[-110,48.99]]]},"properties":{"code":"CA-AB"}},
{"type":"Feature","geometry":{"type":"MultiPolygon","coordinates":[[[[-120,60],[-123.82,60],[-125.72,60],[-128.58,60],[-132.38,60],[-136.19,60],[-139.06,60],[-137.59,59.23],[-137.44,58.9],[-136.58,59.15],[-136.32,59.6],[-135.48,59.79],[-135.05,59.58],[-134.94,59.29],[-133.82,58.71],[-131.87,56.79],[-131.58,56.6],[-130.74,56.34],[-130.03,55.89],[-130.09,55.63],[-129.89,55.16],[-130.43,54.42],[-130.04,54.13],[-130.34,53.72],[-129.56,53.25],[-129.28,53.39],[-128.65,53.24],[-128.45,52.88],[-128.11,52.86],[-128.36,52.16],[-128.1,51.79],[-127.64,51.48],[-127.71,51.15],[-127.06,50.87],[-126.4,50.81],[-126.4,50.53],[-125.06,50.42],[-124.78,50.02],[-124.14,49.79],[-123.86,49.48],[-123.34,49.46],[-123.05,48.99],[-119.7,48.99],[-117.14,48.99],[-114.06,48.99],[-114.72,49.57],[-114.65,49.99],[-114.79,50.36],[-115.21,50.55],[-115.62,50.96],[-116,51.13],[-116.67,51.79],[-116.94,51.74],[-117.32,52.16],[-117.59,52.14],[-118.8,53.15],[-119.26,53.21],[-119.89,53.52],[-120,53.84],[-120,55.77],[-120,57.31],[-120,60]]],[[[-130.21,55.03],[-130.02,55.28],[-130.12,55.69],[-130.03,55.89],[-130.15,55.65],[-130.04,55.3],[-130.21,55.03]]],[[[-132.66,54.13],[-133.06,54.14],[-133.05,53.78],[-132.75,53.31],[-132.01,53.27],[-131.7,53.99],[-132.66,54.13]]],[[[-131.75,53.2],[-132.35,53.14],[-132.17,52.78],[-131.73,52.76],[-131.75,53.2]]],[[[-127.2,50.64],[-127.92,50.86],[-128.27,50.61],[-127.91,50.45],[-127.86,50.13],[-127.47,50.16],[-127.11,49.88],[-126.68,49.88],[-126.55,49.42],[-125.84,49.28],[-125.83,49.09],[-124.69,48.6],[-123.59,48.33],[-123.5,48.58],[-124,49.22],[-124.64,49.43],[-125.48,50.32],[-127.2,50.64]]]]},"properties":{"code":"CA-BC"}},
{"type":"Feature","geometry":{"type":"Polygon","coordinates":[[[-88.95,56.85],[-89.79,56.98],[-90.59,57.22],[-91.11,57.24],[-92.25,57.01],[-93.28,58.76],[-94.29,58.72],[-94.71,58.9],[-94.77,60],[-97.5,60],[-100.2,60],[-102,60],[-102,57.65],[-102,55.82],[-101.88,54.54],[-101.72,52.83],[-101.6,51.55],[-101.37,48.99],[-97.96,48.99],[-95.16,48.99],[-95.16,49.37],[-95.16,50.67],[-95.15,52.82],[-93.62,53.75],[-90.68,55.77],[-88.95,56.85]]]},"properties":{"code":"CA-MB"}},
{"type":"Feature","geometry":{"type":"Polygon","coordinates":[[[-64.03,46.01],[-64.54,46.24],[-64.91,46.89],[-65.32,47.1],[-64.91,47.37],[-64.7,47.72],[-65.23,47.81],[-65.67,47.7],[-65.85,47.91],[-66.7,48.02],[-67.36,47.85],[-67.61,48],[-68.38,47.93],[-68.38,47.59],[-69.05,47.29],[-68.83,47.2],[-68.31,47.35],[-67.81,47.08],[-67.78,45.7],[-67.43,45.6],[-67.47,45.28],[-66.44,45.1],[-65.88,45.22],[-64.31,45.84],[-64.03,46.01]]]},"properties":{"code":"CA-NB"}},
{"type":"Feature","geometry":{"type":"MultiPolygon","coordinates":[[[[-57.1,51.44],[-56.02,51.93],[-55.83,52.31],[-55.8,53.21],[-56.46,53.77],[-57.15,53.85],[-57.42,54.16],[-58.15,54.35],[-57.4,54.57],[-58.2,54.87],[-58.78,54.84],[-59,55.15],[-59.93,55.26],[-60.83,55.96],[-61.09,55.87],[-61.51,56.39],[-61.33,57.01],[-61.85,57.38],[-61.9,57.86],[-62.31,57.97],[-62.59,58.47],[-63.19,58.86],[-63.54,59.33],[-64.61,60.31],[-64.82,59.54],[-64.29,58.87],[-63.85,58.46],[-64.37,58.17],[-63.74,57.58],[-63.76,57.23],[-64.11,56.69],[-64.14,56.39],[-63.58,56.03],[-63.7,55.86],[-63.16,55.31],[-63.51,55.17],[-63.75,54.61],[-64.34,54.73],[-65.68,54.74],[-66.73,55.32],[-66.65,54.8],[-67.62,54.51],[-67.76,54.03],[-66.94,53.33],[-67.07,52.75],[-66.69,52.73],[-66.04,52.11],[-65.14,52.15],[-64.29,51.73],[-64.13,52.19],[-64.18,52.82],[-63.67,53.1],[-63.55,52.77],[-64.02,52.53],[-63.61,52],[-62.39,52],[-59.13,52],[-57.1,52],[-57.1,51.44]]],[[[-55.46,51.54],[-56.03,51.57],[-56.75,51.27],[-57.47,50.46],[-58.02,49.54],[-58.21,49.39],[-58.72,48.6],[-58.71,48.33],[-59.36,47.87],[-59.12,47.57],[-58.33,47.68],[-56.95,47.57],[-56.22,47.67],[-55.19,47.45],[-55.79,46.87],[-55.32,46.91],[-54.86,47.39],[-54.43,47.46],[-53.99,47.76],[-53.87,47.39],[-54.17,46.88],[-53.58,46.96],[-53.62,46.68],[-53.07,46.68],[-52.65,47.55],[-53.18,47.65],[-52.95,48.03],[-53.7,47.92],[-53.53,48.23],[-53.85,48.81],[-53.57,49.14],[-53.96,49.44],[-54.58,49.49],[-55.03,49.31],[-55.89,49.58],[-55.76,49.96],[-56.69,50.06],[-55.87,50.91],[-55.82,51.19],[-55.46,51.54]]]]},"properties":{"code":"CA-NL"}},
{"type":"Feature","geometry":{"type":"MultiPolygon","coordinates":[[[[-64.31,45.84],[-64.83,45.48],[-64.09,45.41],[-64.9,45.12],[-65.66,44.76],[-66.1,44.37],[-66.13,43.81],[-65.74,43.56],[-64.86,43.87],[-64.38,44.3],[-64.29,44.55],[-63.76,44.49],[-62.51,44.84],[-61.28,45.24],[-61.49,45.69],[-61.96,45.87],[-62.48,45.62],[-63.29,45.75],[-64.03,46.01],[-64.31,45.84]]],[[[-61.11,45.94],[-60.58,46.17],[-60.33,46.77],[-60.87,46.8],[-61.5,45.94],[-61.28,45.57],[-60.39,45.65],[-60.02,45.88],[-59.87,46.16],[-60.5,46.2],[-60.47,45.95],[-60.81,45.74],[-61.11,45.94]]]]},"properties":{"code":"CA-NS"}},
{"type":"Feature","geometry":{"type":"MultiPolygon","coordinates":[[[[-110,60],[-107,60],[-105,60],[-102,60],[-102,62.17],[-102,64.23],[-104.61,64.43],[-108.97,64.78],[-109.52,64.9],[-110.67,65.5],[-112.5,65.5],[-114.29,66.05],[-117.36,66.99],[-120.68,68],[-120.68,69.57],[-121.53,69.78],[-123.03,69.81],[-123.61,69.38],[-124.77,69.99],[-125.36,69.63],[-126.06,69.47],[-126.61,69.73],[-127.14,70.24],[-127.76,70.22],[-128.97,69.71],[-129.65,70],[-130.5,70.14],[-131.93,69.75],[-132.84,69.65],[-133.16,69.43],[-135.14,69.47],[-135.69,69.31],[-135.88,68.92],[-136.44,68.9],[-136.45,67.75],[-136.17,67.51],[-136.13,67],[-134.06,67],[-133.64,66.57],[-133.59,65.96],[-132.61,66.03],[-132.19,65.6],[-132.6,65.28],[-132.55,64.78],[-131.11,64.4],[-130.66,63.95],[-129.84,63.49],[-130.1,63.32],[-129.29,62.44],[-129.27,62.17],[-128.56,62.12],[-127.99,61.71],[-127.07,61.37],[-126.89,60.8],[-125.38,60.79],[-124.58,60.95],[-124.6,60.66],[-123.82,60],[-120,60],[-116.25,60],[-113.75,60],[-110,60]]],[[[-110,78.69],[-111.07,78.71],[-113.15,78.41],[-111.44,78.29],[-110,78.32],[-110,78.69]]],[[[-110,78.09],[-113.19,77.91],[-113.16,77.53],[-111.95,77.34],[-110.2,77.52],[-110,77.93],[-110,78.09]]],[[[-115.55,77.36],[-116.36,77.54],[-117.42,77.32],[-119.09,77.31],[-121.61,76.44],[-122.77,76.23],[-121.91,76.03],[-119.91,75.86],[-119.37,76.22],[-116.22,76.61],[-115.55,77.36]]],[[[-110,75.54],[-111.05,75.55],[-112.7,76.2],[-113.82,76.21],[-114.19,76.45],[-115.58,76.44],[-116.61,76.07],[-117.6,75.27],[-115.73,74.97],[-111.62,75.17],[-114.13,74.77],[-113.51,74.43],[-112.52,74.42],[-110,74.85],[-110,75.54]]],[[[-119.74,74.11],[-121.32,74.53],[-124.7,74.35],[-123.8,73.77],[-124.84,73.08],[-124.99,72.59],[-125.76,72.14],[-124.01,71.68],[-123.21,71.12],[-120.62,71.51],[-120.18,72.21],[-119.41,72.36],[-118.96,72.68],[-115.45,73.44],[-115.51,73.62],[-117.2,74.17],[-117.97,74.27],[-119.74,74.11]]],[[[-110,72.98],[-110.21,72.66],[-111.27,72.71],[-112.75,72.99],[-114.11,72.86],[-114.16,73.27],[-114.64,73.37],[-116.57,73.05],[-118.37,72.53],[-118.21,72.26],[-118.94,71.99],[-118.87,71.69],[-117.81,71.16],[-118.26,70.89],[-117.59,70.63],[-115.99,70.59],[-113.76,70.69],[-112.11,70.45],[-112.64,70.23],[-114.59,70.31],[-117.14,70.1],[-116.86,69.65],[-117.06,70],[-114.48,70],[-110,70],[-110,71.09],[-110,72.98]]]]},"properties":{"code":"CA-NT"}},
{"type":"Feature","geometry":{"type":"MultiPolygon","coordinates":[[[[-94.77,60],[-94.65,60.42],[-94.07,61.14],[-94.06,61.32],[-93.42,61.71],[-92.36,62.82],[-91.45,62.8],[-90.87,62.95],[-90.75,63.35],[-91.33,63.51],[-90.01,63.8],[-90.14,63.98],[-88.65,64.01],[-88.11,64.18],[-87.28,64.83],[-87.03,65.2],[-88.97,65.35],[-89.92,65.78],[-89.75,65.94],[-87.97,65.35],[-87.29,65.35],[-86.04,66.02],[-86.63,66.53],[-85.44,66.54],[-84.48,66.18],[-82.64,66.59],[-81.47,67.07],[-81.27,67.46],[-81.98,67.86],[-82.55,68.45],[-81.28,68.66],[-81.33,69.12],[-82.64,69.46],[-82.62,69.69],[-84.24,69.84],[-85.51,69.85],[-85.39,69.23],[-84.86,69.07],[-85.73,68.63],[-85.95,68.07],[-86.54,67.52],[-87.27,67.18],[-88.2,67.77],[-88.35,68.29],[-87.81,68.4],[-88.04,68.81],[-89.06,69.27],[-89.67,69.01],[-89.88,68.52],[-90.57,68.47],[-90.47,68.86],[-90.82,69.29],[-90.55,69.5],[-91.91,69.53],[-92.75,69.71],[-91.56,70.18],[-92.98,70.85],[-92.95,71.26],[-94.31,71.76],[-95.2,71.9],[-96.41,71.27],[-96.55,70.33],[-96.12,69.87],[-94.27,69.46],[-93.68,68.89],[-93.65,68.54],[-94.74,68.07],[-95.46,68.02],[-95.65,67.74],[-95.26,67.26],[-95.78,67.19],[-96.37,67.55],[-96.04,68.16],[-96.98,68.26],[-97.27,68.45],[-98.22,68.32],[-98.44,68.06],[-97.21,67.86],[-97.45,67.62],[-98.42,67.83],[-99.15,67.72],[-100.46,67.84],[-101.55,67.69],[-102.69,67.81],[-103.47,68.12],[-104.19,68.03],[-105.43,68.46],[-105.54,68.72],[-106.16,68.92],[-108.31,68.61],[-108.69,68.28],[-108.26,68.15],[-107.16,66.88],[-108.46,67.06],[-107.99,67.26],[-108.59,67.59],[-109.63,67.73],[-110.04,67.98],[-110.99,67.79],[-112.44,67.68],[-113.68,67.7],[-115.13,67.82],[-114.77,68.27],[-113.96,68.4],[-114.41,68.66],[-115.63,68.97],[-116.07,68.86],[-118.1,69.04],[-118.87,69.26],[-119.85,69.34],[-120.68,69.57],[-120.68,68],[-117.36,66.99],[-114.29,66.05],[-112.5,65.5],[-110.67,65.5],[-109.52,64.9],[-108.97,64.78],[-104.61,64.43],[-102,64.23],[-102,62.17],[-102,60],[-100.2,60],[-97.5,60],[-94.77,60]]],[[[-110,74.85],[-108.83,75.06],[-107.15,74.93],[-105.86,75.19],[-105.48,75.75],[-106.4,76.06],[-107.76,75.94],[-108.63,76.59],[-110,76.48],[-110,76.24],[-110,75.54],[-110,74.85]]],[[[-116.86,69.65],[-116.51,69.42],[-115.16,69.26],[-113.69,69.2],[-113.62,68.84],[-113.13,68.49],[-111.31,68.54],[-108.95,68.76],[-107.44,69],[-106.66,69.44],[-106.14,69.16],[-105.02,69.08],[-103.47,68.81],[-101.86,69.02],[-101.98,69.41],[-102.62,69.55],[-102.18,69.85],[-100.94,69.72],[-101.15,70.15],[-103.1,70.51],[-103.95,70.76],[-104.57,71.1],[-104.35,71.43],[-105.23,72.42],[-105.42,72.79],[-106.48,73.2],[-107.72,73.33],[-108.24,73.11],[-107.7,72.15],[-107.31,71.89],[-108.21,71.75],[-108.7,72.5],[-110,72.98],[-110,71.09],[-110,70],[-114.48,70],[-117.06,70],[-116.86,69.65]]],[[[-84.92,65.26],[-85.24,65.8],[-85.96,65.7],[-86.37,64.57],[-86.25,64.14],[-87.19,63.67],[-85.71,63.66],[-85.5,63.14],[-84.63,63.31],[-83.73,63.81],[-83.49,64.1],[-82.47,63.93],[-82.38,63.71],[-81.05,63.46],[-80.3,63.76],[-80.83,64.09],[-81.72,64.02],[-82.05,64.64],[-83.41,65.1],[-84.92,65.26]]],[[[-82,62.95],[-83.38,62.9],[-83.9,62.48],[-83.7,62.16],[-83.02,62.21],[-82.11,62.65],[-82,62.95]]],[[[-79.55,62.41],[-80.23,62.15],[-80.28,61.86],[-79.71,61.61],[-79.32,62.03],[-79.55,62.41]]],[[[-78.94,56.27],[-79.6,56.24],[-80,55.93],[-79.18,55.89],[-78.94,56.27]]],[[[-80.73,52.75],[-81.14,53.21],[-81.85,53.19],[-81.84,52.96],[-80.73,52.75]]],[[[-69.49,83.02],[-69.97,83.12],[-75.74,83.05],[-77.48,82.88],[-79.89,82.94],[-82.12,82.6],[-82.54,82.25],[-84.9,82.45],[-86.58,82.19],[-90.49,81.88],[-88.98,81.54],[-89.95,81.17],[-88.92,80.81],[-85.31,80.53],[-83.4,80.71],[-80.05,80.53],[-83.72,80.23],[-86.31,80.32],[-86.42,79.85],[-85.09,79.61],[-84.2,79.23],[-84.32,78.98],[-86.81,78.77],[-87.55,78.18],[-87.02,77.89],[-88.09,77.72],[-86.87,77.2],[-88.4,77.1],[-89.5,76.83],[-89.57,76.49],[-85.14,76.3],[-83.89,76.45],[-81.17,76.51],[-80.69,76.18],[-78.28,76.57],[-78.29,76.98],[-79.34,77.16],[-78.08,77.52],[-78.01,77.95],[-75.87,78.01],[-74.43,78.72],[-76.26,79.01],[-75.26,79.42],[-71.39,79.76],[-70.14,80.4],[-65.48,81.28],[-64.57,81.73],[-62.18,82.04],[-61.39,82.44],[-64.78,82.88],[-69.49,83.02]]],[[[-91.89,81.13],[-95.27,81],[-96.13,80.69],[-95.61,80.4],[-96.77,80.14],[-95.73,79.42],[-94.16,78.99],[-92.68,78.39],[-90.61,78.15],[-88.79,78.19],[-87.02,78.9],[-85.29,79.21],[-85.5,79.53],[-87.14,79.66],[-87.68,80.37],[-90.64,80.59],[-91.89,81.13]]],[[[-103.43,79.32],[-105.39,79.32],[-105.54,79.03],[-103.52,78.77],[-104.32,78.27],[-102.73,78.37],[-101.07,78.19],[-100.59,77.89],[-99.17,77.86],[-99.75,78.3],[-99.61,78.58],[-103.43,79.32]]],[[[-96.2,78.53],[-98.21,78.8],[-98.25,78.43],[-96.99,77.81],[-95.09,77.99],[-94.89,78.35],[-96.2,78.53]]],[[[-95.48,77.79],[-95.99,77.48],[-93.52,77.47],[-93.3,77.74],[-95.48,77.79]]],[[[-94.29,76.91],[-95.64,77.06],[-96.76,76.97],[-96.64,76.7],[-95.27,76.26],[-93.09,76.35],[-92.19,75.85],[-92.43,75.35],[-91.96,74.79],[-89.84,74.55],[-88.42,74.49],[-84.43,74.51],[-83.53,74.59],[-81.81,74.48],[-80.28,74.58],[-79.51,74.88],[-79.66,75.45],[-82.15,75.83],[-83.93,75.82],[-86.07,75.5],[-87.26,75.62],[-88.2,75.51],[-90.25,76.05],[-89.28,76.3],[-90.85,76.44],[-91.31,76.68],[-92.72,76.6],[-94.29,76.91]]],[[[-97.7,76.47],[-100.39,76.61],[-102.14,76.28],[-101.43,75.99],[-102.54,75.51],[-100.71,75.41],[-100.23,75.01],[-98.57,75.01],[-97.8,75.12],[-97.41,75.55],[-97.7,76.47]]],[[[-102.23,76.01],[-102.58,76.28],[-104.35,76.18],[-103.31,75.76],[-102.23,76.01]]],[[[-93.54,75.03],[-94.43,75.59],[-95.67,75.53],[-96.57,75.1],[-96.27,74.92],[-94.7,74.64],[-93.55,74.69],[-93.54,75.03]]],[[[-93.17,74.16],[-94.97,74.04],[-95.63,73.7],[-95.55,72.78],[-95.19,72.03],[-94.04,72.03],[-93.34,72.8],[-92.12,72.75],[-90.35,73.87],[-91.09,74.01],[-92.22,73.97],[-93.17,74.16]]],[[[-100,73.95],[-100.92,73.81],[-101.45,73.43],[-100.28,73.12],[-100.48,72.77],[-101.35,72.75],[-101.92,73.06],[-102.71,72.78],[-101.72,72.31],[-100.59,72.15],[-99.17,71.37],[-98.66,71.3],[-96.61,71.83],[-97.05,72.64],[-97.8,73.29],[-97,73.67],[-97.58,73.89],[-99.16,73.73],[-100,73.95]]],[[[-86.59,71.01],[-85.02,71.35],[-86.04,71.77],[-86.63,72.87],[-86.09,73.26],[-84.97,73.69],[-86.77,73.83],[-87.72,73.72],[-89.26,73.07],[-89.86,72.41],[-90.03,71.95],[-89.85,71.49],[-89.08,71.29],[-87.87,71.21],[-87.84,70.94],[-89.37,71.07],[-88.85,70.52],[-87.9,70.25],[-86.62,70.4],[-86.32,70.15],[-83.86,69.96],[-83.09,70],[-82.14,69.84],[-81.1,70.09],[-79.62,69.89],[-78.89,69.98],[-78.98,70.58],[-77.13,69.65],[-75.79,69.32],[-76.4,68.69],[-74.92,68.98],[-74.65,68.71],[-73.33,68.27],[-72.22,67.25],[-73.2,66.7],[-74.43,66.14],[-73.56,65.54],[-75.83,65.23],[-77.33,65.45],[-77.45,65.16],[-78.1,64.94],[-78.17,64.62],[-77.79,64.37],[-76.72,64.24],[-75.07,64.46],[-74.51,64.67],[-73.44,64.42],[-72.22,63.71],[-71.97,63.43],[-71.25,63.04],[-70.24,62.76],[-69.55,62.74],[-69.08,62.41],[-68.38,62.24],[-67.44,62.15],[-66.26,61.87],[-66.28,62.3],[-67.68,63.09],[-67.84,63.45],[-66.64,63.08],[-65.98,63],[-65.27,62.72],[-65.07,63.26],[-64.51,63.26],[-64.68,64.03],[-65.01,64.01],[-65.27,64.63],[-66.86,65.09],[-67.3,65.48],[-68.26,65.94],[-67.18,66.03],[-66.48,66.28],[-65.31,66.01],[-65.4,65.76],[-64.67,65.17],[-63.4,65.12],[-63.36,65.54],[-62.66,65.64],[-61.99,66.04],[-61.3,66.65],[-61.97,67.02],[-62.38,66.91],[-63.26,67.02],[-63.04,67.24],[-64.01,67.35],[-64.53,67.81],[-66.23,67.96],[-67.03,68.33],[-68.04,68.55],[-67.75,69.04],[-66.77,69.34],[-68.51,69.58],[-67.36,70.03],[-69.17,70.76],[-70.56,70.74],[-70.79,71.1],[-71.64,71.52],[-73.71,71.72],[-74.9,72.1],[-75.29,72.48],[-76.89,72.72],[-78,72.69],[-79,72.27],[-80.94,72.21],[-80.27,72.75],[-81.41,73.63],[-82.66,73.73],[-85.02,73.34],[-85.64,72.77],[-85.34,72.42],[-85.91,71.99],[-84.66,71.59],[-84.79,71.09],[-85.64,71.15],[-86.59,71.01]]],[[[-79.54,73.65],[-80.85,73.72],[-80.82,73.38],[-80.18,73.22],[-79.5,72.76],[-77.84,72.9],[-76.4,72.82],[-76.29,73.08],[-77.21,73.5],[-78.29,73.67],[-79.54,73.65]]],[[[-105.29,72.92],[-104.58,73.35],[-104.65,73.61],[-105.51,73.77],[-106.61,73.7],[-106.92,73.48],[-105.29,72.92]]],[[[-97.44,69.64],[-98.55,69.54],[-98.46,69.33],[-99.56,69.03],[-99.25,68.86],[-97.47,68.54],[-96.4,68.47],[-95.69,68.74],[-96.3,69.34],[-97.44,69.64]]],[[[-75.68,68.32],[-76.74,68.23],[-77.31,67.71],[-77,67.27],[-75.78,67.28],[-75.13,67.54],[-75.15,68.23],[-75.68,68.32]]]]},"properties":{"code":"CA-NU"}},
{"type":"Feature","geometry":{"type":"MultiPolygon","coordinates":[[[[-95.16,49.37],[-94.85,49.3],[-94.62,48.74],[-93.71,48.53],[-93,48.61],[-91.52,48.06],[-90.84,48.2],[-89.46,48],[-88.38,48.3],[-84.88,46.9],[-84.56,46.46],[-84.19,46.55],[-83.98,46.08],[-83.59,45.82],[-82.55,45.35],[-82.14,43.57],[-82.55,42.62],[-83.07,42.3],[-83.14,41.98],[-82.69,41.68],[-82.44,41.67],[-81.28,42.21],[-80.25,42.37],[-79.04,42.8],[-79.17,43.47],[-78.72,43.62],[-76.82,43.63],[-76.46,44.06],[-75.18,44.9],[-74.71,45],[-74.34,45.21],[-74.4,45.57],[-74.86,45.64],[-75.9,45.42],[-76.41,45.5],[-77.68,46.19],[-78.78,46.39],[-79.36,47.02],[-79.55,47.41],[-79.51,48.57],[-79.52,50.92],[-79.84,51.17],[-80.37,51.33],[-80.66,51.76],[-81.66,52.29],[-81.6,52.43],[-82.26,52.96],[-82.14,53.82],[-82.42,54.36],[-82.22,54.81],[-82.58,55.15],[-83.91,55.31],[-85.06,55.29],[-85.68,55.6],[-87.56,56.06],[-88.08,56.47],[-88.95,56.85],[-90.68,55.77],[-93.62,53.75],[-95.15,52.82],[-95.16,50.67],[-95.16,49.37]]],[[[-79.52,50.97],[-79.52,51.54],[-79.71,51.12],[-79.52,50.97]]]]},"properties":{"code":"CA-ON"}},
{"type":"Feature","geometry":{"type":"Polygon","coordinates":[[[-63.81,46.47],[-63.64,46.23],[-62.88,46],[-62.16,46.49],[-63.13,46.42],[-63.81,46.47]]]},"properties":{"code":"CA-PE"}},
{"type":"Feature","geometry":{"type":"MultiPolygon","coordinates":[[[[-66.7,48.02],[-65.93,48.19],[-65.26,48.02],[-64.25,48.55],[-64.26,48.92],[-64.84,49.19],[-65.52,49.27],[-66.18,49.21],[-67.56,48.86],[-68.99,48.27],[-70.52,47.03],[-71.26,46.76],[-71.9,46.63],[-73.16,46.01],[-73.56,45.43],[-74.71,45],[-71.52,45.01],[-71.33,45.29],[-70.9,45.26],[-70.3,45.91],[-70.01,46.71],[-69.24,47.46],[-69.05,47.29],[-68.38,47.59],[-68.38,47.93],[-67.61,48],[-67.36,47.85],[-66.7,48.02]]],[[[-64.61,60.31],[-64.93,60.25],[-65.43,59.78],[-65.61,59.11],[-66.61,58.55],[-67.57,58.21],[-68.33,58.6],[-68.7,58.9],[-69.17,58.9],[-69.68,59.34],[-69.76,60.39],[-69.64,60.69],[-70.28,61.07],[-71.42,61.16],[-72.08,61.73],[-73.63,62.45],[-74.69,62.18],[-75.82,62.32],[-77.37,62.57],[-78.07,62.36],[-78.14,62.11],[-77.74,61.44],[-77.87,60.79],[-77.31,60.04],[-77.73,59.68],[-77.76,59.38],[-78.43,58.9],[-78.52,58.68],[-77.16,58.02],[-76.57,57.18],[-76.52,56.71],[-76.65,56.11],[-77.32,55.56],[-77.89,55.24],[-78.91,54.88],[-79.67,54.7],[-79.24,54.1],[-78.72,52.63],[-78.49,52.25],[-78.98,51.73],[-79.52,51.54],[-79.52,50.97],[-79.52,50.92],[-79.51,48.57],[-79.55,47.41],[-79.36,47.02],[-78.78,46.39],[-77.68,46.19],[-76.41,45.5],[-75.9,45.42],[-74.86,45.64],[-74.4,45.57],[-74.34,45.21],[-74.04,45.5],[-73.48,45.74],[-72.98,46.21],[-71.88,46.69],[-71.27,46.8],[-70.71,47.14],[-69.91,47.83],[-69.77,48.1],[-68.93,48.83],[-68.28,49.2],[-67.37,49.35],[-66.94,49.99],[-66.5,50.21],[-65.27,50.32],[-64.87,50.28],[-62.72,50.3],[-61.29,50.2],[-60.08,50.25],[-59.17,50.78],[-58.51,51.3],[-57.1,51.44],[-57.1,52],[-59.13,52],[-62.39,52],[-63.61,52],[-64.02,52.53],[-63.55,52.77],[-63.67,53.1],[-64.18,52.82],[-64.13,52.19],[-64.29,51.73],[-65.14,52.15],[-66.04,52.11],[-66.69,52.73],[-67.07,52.75],[-66.94,53.33],[-67.76,54.03],[-67.62,54.51],[-66.65,54.8],[-66.73,55.32],[-65.68,54.74],[-64.34,54.73],[-63.75,54.61],[-63.51,55.17],[-63.16,55.31],[-63.7,55.86],[-63.58,56.03],[-64.14,56.39],[-64.11,56.69],[-63.76,57.23],[-63.74,57.58],[-64.37,58.17],[-63.85,58.46],[-64.29,58.87],[-64.82,59.54],[-64.61,60.31]]],[[[-61.8,49.09],[-61.82,49.28],[-62.86,49.71],[-64.13,49.94],[-63.57,49.4],[-63.04,49.22],[-62.22,49.08],[-61.8,49.09]]]]},"properties":{"code":"CA-QC"}},
{"type":"Feature","geometry":{"type":"Polygon","coordinates":[[[-110,48.99],[-108.19,48.99],[-105.2,48.99],[-103.5,48.99],[-101.37,48.99],[-101.6,51.55],[-101.72,52.83],[-101.88,54.54],[-102,55.82],[-102,57.65],[-102,60],[-105,60],[-107,60],[-110,60],[-110,57.25],[-110,54.5],[-110,52.78],[-110,51.4],[-110,48.99]]]},"properties":{"code":"CA-SK"}},
{"type":"Feature","geometry":{"type":"Polygon","coordinates":[[[-123.82,60],[-124.6,60.66],[-124.58,60.95],[-125.38,60.79],[-126.89,60.8],[-127.07,61.37],[-127.99,61.71],[-128.56,62.12],[-129.27,62.17],[-129.29,62.44],[-130.1,63.32],[-129.84,63.49],[-130.66,63.95],[-131.11,64.4],[-132.55,64.78],[-132.6,65.28],[-132.19,65.6],[-132.61,66.03],[-133.59,65.96],[-133.64,66.57],[-134.06,67],[-136.13,67],[-136.17,67.51],[-136.45,67.75],[-136.44,68.9],[-138.13,69.15],[-139.18,69.52],[-141,69.65],[-141,67.61],[-141,66.14],[-141,64.68],[-141,62.93],[-141,60.3],[-139.97,60.18],[-139.08,60.34],[-139.06,60],[-136.19,60],[-132.38,60],[-128.58,60],[-125.72,60],[-123.82,60]]]},"properties":{"code":"CA-YT"}}
]}